KUIPER-00177            
1 67766U 26030C   26053.16668981  .00052819  00000+0  14967-2 0  9997
2 67766  51.8837 293.9224 0000742  60.2096 111.6910 15.35741147  2608
KUIPER-00178            
1 67767U 26030D   26053.16668981  .00053309  00000+0  15576-2 0  9990
2 67767  51.8834 293.9984 0005644   4.7406 130.0983 15.34763712  1989
KUIPER-00180            
1 67768U 26030E   26053.16668981  .00069230  00000+0  21391-2 0  9993
2 67768  51.8805 294.1243 0014946  20.2936  50.7857 15.32785633  1303
KUIPER-00197            
1 67769U 26030F   26053.16668981  .00052843  00000+0  15027-2 0  9995
2 67769  51.8837 293.9365 0001529  63.0693 101.8449 15.35629595  1301
KUIPER-00198            
1 67770U 26030G   26053.16668981  .00053039  00000+0  15252-2 0  9995
2 67770  51.8813 293.9606 0002779  17.7480 134.5998 15.35276026  1302
KUIPER-00199            
1 67771U 26030H   26053.16668981  .00051605  00000+0  15597-2 0  9995
2 67771  51.8806 294.0697 0010266  14.6708  83.4940 15.33675476  2621
KUIPER-00200            
1 67772U 26030J   26053.16668981  .00052490  00000+0  14642-2 0  9999
2 67772  51.8817 293.8937 0002222 149.6121  35.7857 15.36232502  2505
KUIPER-00203            
1 67773U 26030K   26053.16668981  .00050059  00000+0  15265-2 0  9991
2 67773  51.8796 294.0869 0012396  16.6289  72.0270 15.33384410  1303
KUIPER-00205            
1 67774U 26030L   26053.16668981  .00053217  00000+0  15142-2 0  9995
2 67774  51.8814 293.9418 0001886 348.7170 172.7962 15.35608296  1896
KUIPER-00208            
1 67775U 26030M   26053.16668981  .00048950  00000+0  15195-2 0  9992
2 67775  51.8829 294.1261 0014874  17.3301  55.5846 15.32794844  2452
KUIPER-00209            
1 67776U 26030N   26053.16668981  .00050488  00000+0  15695-2 0  9997
2 67776  51.8824 294.1135 0012646  17.0712  61.1923 15.32766169  2106
KUIPER-00213            
1 67777U 26030P   26053.16668981  .00051280  00000+0  15887-2 0  9992
2 67777  51.8805 294.1107 0014545  17.9840  59.7045 15.32840873  2615
